[{"OBJECT_NAME":"STARLINK-3641","OBJECT_ID":"2022-017W","EPOCH":"2026-03-09T23:26:44.761344","MEAN_MOTION":15.08815298,"ECCENTRICITY":0.00021368,"INCLINATION":53.2196,"RA_OF_ASC_NODE":347.8328,"ARG_OF_PERICENTER":45.198,"MEAN_ANOMALY":314.9186,"EPHEMERIS_TYPE":0,"CLASSIFICATION_TYPE":"U","NORAD_CAT_ID":51788,"ELEMENT_SET_NO":999,"REV_AT_EPOCH":22396,"BSTAR":6.3918065e-5,"MEAN_MOTION_DOT":7.29e-6,"MEAN_MOTION_DDOT":0},{"OBJECT_NAME":"CZ-6A DEB","OBJECT_ID":"2022-151YC","EPOCH":"2026-03-09T04:14:53.282976","MEAN_MOTION":14.99280007,"ECCENTRICITY":0.00518471,"INCLINATION":98.6024,"RA_OF_ASC_NODE":155.4435,"ARG_OF_PERICENTER":132.3409,"MEAN_ANOMALY":228.2221,"EPHEMERIS_TYPE":0,"CLASSIFICATION_TYPE":"U","NORAD_CAT_ID":55530,"ELEMENT_SET_NO":999,"REV_AT_EPOCH":17201,"BSTAR":0.0041206483,"MEAN_MOTION_DOT":0.00051995,"MEAN_MOTION_DDOT":0}]
